[{"OBJECT_NAME":"STARLINK-30151","OBJECT_ID":"2023-079E","EPOCH":"2026-03-09T22:00:01.999584","MEAN_MOTION":15.17711074,"ECCENTRICITY":0.00012075,"INCLINATION":43,"RA_OF_ASC_NODE":105.4581,"ARG_OF_PERICENTER":287.8045,"MEAN_ANOMALY":174.4924,"EPHEMERIS_TYPE":0,"CLASSIFICATION_TYPE":"U","NORAD_CAT_ID":56827,"ELEMENT_SET_NO":999,"REV_AT_EPOCH":578,"BSTAR":0.055737382,"MEAN_MOTION_DOT":0.01254348,"MEAN_MOTION_DDOT":0},{"OBJECT_NAME":"TRANSPORTER-10 OBJECT AG","OBJECT_ID":"2024-043AG","EPOCH":"2026-03-09T22:12:45.387648","MEAN_MOTION":15.30759727,"ECCENTRICITY":0.00093005,"INCLINATION":97.5471,"RA_OF_ASC_NODE":205.7101,"ARG_OF_PERICENTER":226.5958,"MEAN_ANOMALY":133.4509,"EPHEMERIS_TYPE":0,"CLASSIFICATION_TYPE":"U","NORAD_CAT_ID":59128,"ELEMENT_SET_NO":999,"REV_AT_EPOCH":11192,"BSTAR":0.00032170115,"MEAN_MOTION_DOT":9.498e-5,"MEAN_MOTION_DDOT":0}]
